[{"OBJECT_NAME":"STARLINK-5906","OBJECT_ID":"2023-037BA","EPOCH":"2026-03-09T21:59:01.733856","MEAN_MOTION":14.98328179,"ECCENTRICITY":0.00026796,"INCLINATION":69.9984,"RA_OF_ASC_NODE":264.0177,"ARG_OF_PERICENTER":261.8106,"MEAN_ANOMALY":98.2749,"EPHEMERIS_TYPE":0,"CLASSIFICATION_TYPE":"U","NORAD_CAT_ID":55962,"ELEMENT_SET_NO":999,"REV_AT_EPOCH":16450,"BSTAR":-1.06104e-6,"MEAN_MOTION_DOT":-1.06e-6,"MEAN_MOTION_DDOT":0},{"OBJECT_NAME":"UNKNOWN","OBJECT_ID":"","EPOCH":"2026-03-07T08:31:28.132608","MEAN_MOTION":13.62091848,"ECCENTRICITY":0.0674129,"INCLINATION":65.8255,"RA_OF_ASC_NODE":26.5059,"ARG_OF_PERICENTER":266.24,"MEAN_ANOMALY":170.5998,"EPHEMERIS_TYPE":0,"CLASSIFICATION_TYPE":"U","NORAD_CAT_ID":87517,"ELEMENT_SET_NO":999,"REV_AT_EPOCH":60443,"BSTAR":0.0013224,"MEAN_MOTION_DOT":4.838e-5,"MEAN_MOTION_DDOT":0}]
